{
    "links": {
        "self": "http://www.neowsapp.com/rest/v1/neo/3759004?api_key=iIulBulltgU6a56xZRHN4H3l9WmuAYTsLGpBGhQ2"
    },
    "id": "3759004",
    "neo_reference_id": "3759004",
    "name": "(2016 RN17)",
    "designation": "2016 RN17",
    "nasa_jpl_url": "http://ssd.jpl.nasa.gov/sbdb.cgi?sstr=3759004",
    "absolute_magnitude_h": 23.2,
    "estimated_diameter": {
        "kilometers": {
            "estimated_diameter_min": 0.0608912622,
            "estimated_diameter_max": 0.1361570015
        },
        "meters": {
            "estimated_diameter_min": 60.8912622106,
            "estimated_diameter_max": 136.1570015386
        },
        "miles": {
            "estimated_diameter_min": 0.0378360645,
            "estimated_diameter_max": 0.0846040122
        },
        "feet": {
            "estimated_diameter_min": 199.7744887109,
            "estimated_diameter_max": 446.7093369279
        }
    },
    "is_potentially_hazardous_asteroid": false,
    "close_approach_data": [
        {
            "close_approach_date": "2016-09-06",
            "close_approach_date_full": "2016-Sep-06 20:16",
            "epoch_date_close_approach": 1473192960000,
            "relative_velocity": {
                "kilometers_per_second": "19.737360666",
                "kilometers_per_hour": "71054.4983977454",
                "miles_per_hour": "44150.5020738658"
            },
            "miss_distance": {
                "astronomical": "0.082585336",
                "lunar": "32.125695704",
                "kilometers": "12354590.35883432",
                "miles": "7676786.471660816"
            },
            "orbiting_body": "Earth"
        },
        {
            "close_approach_date": "2017-02-25",
            "close_approach_date_full": "2017-Feb-25 16:49",
            "epoch_date_close_approach": 1488041340000,
            "relative_velocity": {
                "kilometers_per_second": "19.0412322612",
                "kilometers_per_hour": "68548.4361404032",
                "miles_per_hour": "42593.33244513"
            },
            "miss_distance": {
                "astronomical": "0.2285979693",
                "lunar": "88.9246100577",
                "kilometers": "34197769.293605391",
                "miles": "21249508.4862447558"
            },
            "orbiting_body": "Earth"
        }
    ],
    "orbital_data": {
        "orbit_id": "5",
        "orbit_determination_date": "2017-04-06 08:24:07",
        "first_observation_date": "2016-09-05",
        "last_observation_date": "2016-09-17",
        "data_arc_in_days": 12,
        "observations_used": 68,
        "orbit_uncertainty": "8",
        "minimum_orbit_intersection": ".0762198",
        "jupiter_tisserand_invariant": "5.031",
        "epoch_osculation": "2457638.5",
        "eccentricity": ".2262406843325882",
        "semi_major_axis": "1.213397850209554",
        "inclination": "37.89409270108647",
        "ascending_node_longitude": "342.0759190756825",
        "orbital_period": "488.2061642017754",
        "perihelion_distance": ".9388778902104532",
        "perihelion_argument": "75.25823666890203",
        "aphelion_distance": "1.487917810208655",
        "perihelion_time": "2457706.922493176573",
        "mean_anomaly": "309.5457055855898",
        "mean_motion": ".737393393196101",
        "equinox": "J2000",
        "orbit_class": {
            "orbit_class_type": "APO",
            "orbit_class_description": "Near-Earth asteroid orbits which cross the Earth’s orbit similar to that of 1862 Apollo",
            "orbit_class_range": "a (semi-major axis) > 1.0 AU; q (perihelion) < 1.017 AU"
        }
    },
    "is_sentry_object": false
}